{"type":"FeatureCollection","features":[{"type":"Feature","geometry":{"type":"Point","coordinates":[-43.106745,-22.893745]},"properties":{"id":1,"nome":"Bairro de Fatima","operacional":"1","localidade":"Bairro de Fátima","endereco":null,"bairro":"Bairro de Fátima","tipo":"nudec","fonte":"Prefeitura de Niterói / GeoNit / Defesa Civil"}},{"type":"Feature","geometry":{"type":"Point","coordinates":[-43.108378,-22.887742]},"properties":{"id":2,"nome":"Boa Vista","operacional":"1","localidade":"Boa Vista","endereco":null,"bairro":"São Lourenço","tipo":"nudec","fonte":"Prefeitura de Niterói / GeoNit / Defesa Civil"}},{"type":"Feature","geometry":{"type":"Point","coordinates":[-43.049434,-22.912286]},"properties":{"id":3,"nome":"Cantagalo","operacional":"1","localidade":"Cantagalo","endereco":null,"bairro":"Cantagalo","tipo":"nudec","fonte":"Prefeitura de Niterói / GeoNit / Defesa Civil"}},{"type":"Feature","geometry":{"type":"Point","coordinates":[-43.08182,-22.896752]},"properties":{"id":4,"nome":"Capim Melado","operacional":"1","localidade":"Capim Melado","endereco":null,"bairro":"Ititoca","tipo":"nudec","fonte":"Prefeitura de Niterói / GeoNit / Defesa Civil"}},{"type":"Feature","geometry":{"type":"Point","coordinates":[-43.064307,-22.888394]},"properties":{"id":5,"nome":"Caramujo","operacional":"1","localidade":"Caramujo","endereco":null,"bairro":"Caramujo","tipo":"nudec","fonte":"Prefeitura de Niterói / GeoNit / Defesa Civil"}},{"type":"Feature","geometry":{"type":"Point","coordinates":[-43.104178,-22.912913]},"properties":{"id":6,"nome":"Cavalao","operacional":"1","localidade":"Cavalao","endereco":null,"bairro":"Icaraí","tipo":"nudec","fonte":"Prefeitura de Niterói / GeoNit / Defesa Civil"}},{"type":"Feature","geometry":{"type":"Point","coordinates":[-43.089428,-22.872661]},"properties":{"id":7,"nome":"Cel. Leoncio","operacional":"1","localidade":"Coronel Leôncio","endereco":null,"bairro":"Engenhoca","tipo":"nudec","fonte":"Prefeitura de Niterói / GeoNit / Defesa Civil"}},{"type":"Feature","geometry":{"type":"Point","coordinates":[-43.116979,-22.871861]},"properties":{"id":8,"nome":"Ilha da Conceicao","operacional":"1","localidade":"Ilha da Conceição","endereco":null,"bairro":"Ilha da Conceição","tipo":"nudec","fonte":"Prefeitura de Niterói / GeoNit / Defesa Civil"}},{"type":"Feature","geometry":{"type":"Point","coordinates":[-43.124726,-22.879673]},"properties":{"id":9,"nome":"Morro da Penha","operacional":"1","localidade":"Morro da Penha","endereco":null,"bairro":"Ponta D'areia","tipo":"nudec","fonte":"Prefeitura de Niterói / GeoNit / Defesa Civil"}},{"type":"Feature","geometry":{"type":"Point","coordinates":[-43.120789,-22.898779]},"properties":{"id":10,"nome":"Morro do Estado","operacional":"1","localidade":"Morro do Estado","endereco":null,"bairro":"Morro do Estado","tipo":"nudec","fonte":"Prefeitura de Niterói / GeoNit / Defesa Civil"}},{"type":"Feature","geometry":{"type":"Point","coordinates":[-43.116206,-22.896775]},"properties":{"id":11,"nome":"Morro da Chacara e Arroz","operacional":"1","localidade":"Morro da Chácara e Arroz","endereco":null,"bairro":"Centro","tipo":"nudec","fonte":"Prefeitura de Niterói / GeoNit / Defesa Civil"}},{"type":"Feature","geometry":{"type":"Point","coordinates":[-43.09875,-22.935911]},"properties":{"id":12,"nome":"Preventorio","operacional":"1","localidade":"Preventório","endereco":null,"bairro":"Charitas","tipo":"nudec","fonte":"Prefeitura de Niterói / GeoNit / Defesa Civil"}},{"type":"Feature","geometry":{"type":"Point","coordinates":[-43.0451,-22.876691]},"properties":{"id":13,"nome":"Santa Barbara","operacional":"1","localidade":"Santa Bárbara","endereco":null,"bairro":"Santa Bárbara","tipo":"nudec","fonte":"Prefeitura de Niterói / GeoNit / Defesa Civil"}},{"type":"Feature","geometry":{"type":"Point","coordinates":[-43.107871,-22.887745]},"properties":{"id":14,"nome":"Sao Lourenco","operacional":"1","localidade":"São Lourenço","endereco":null,"bairro":"São Lourenço","tipo":"nudec","fonte":"Prefeitura de Niterói / GeoNit / Defesa Civil"}},{"type":"Feature","geometry":{"type":"Point","coordinates":[-43.060978,-22.89565]},"properties":{"id":15,"nome":"Sape","operacional":"1","localidade":"Sapê","endereco":null,"bairro":"Sapê","tipo":"nudec","fonte":"Prefeitura de Niterói / GeoNit / Defesa Civil"}},{"type":"Feature","geometry":{"type":"Point","coordinates":[-43.073552,-22.872794]},"properties":{"id":16,"nome":"Teixeira de Freitas","operacional":"1","localidade":"Teixeira de Freitas","endereco":null,"bairro":"Fonseca","tipo":"nudec","fonte":"Prefeitura de Niterói / GeoNit / Defesa Civil"}},{"type":"Feature","geometry":{"type":"Point","coordinates":[-43.09806,-22.893831]},"properties":{"id":17,"nome":"Travessa Iara","operacional":"1","localidade":"Travessa Iara","endereco":null,"bairro":"Cubango","tipo":"nudec","fonte":"Prefeitura de Niterói / GeoNit / Defesa Civil"}},{"type":"Feature","geometry":{"type":"Point","coordinates":[-43.084507,-22.889343]},"properties":{"id":18,"nome":"Vicoso Jardim","operacional":"1","localidade":"Viçoso Jardim","endereco":null,"bairro":"Viçoso Jardim","tipo":"nudec","fonte":"Prefeitura de Niterói / GeoNit / Defesa Civil"}},{"type":"Feature","geometry":{"type":"Point","coordinates":[-43.082613,-22.905511]},"properties":{"id":19,"nome":"Viradouro","operacional":"1","localidade":"Viradouro","endereco":null,"bairro":"Viradouro","tipo":"nudec","fonte":"Prefeitura de Niterói / GeoNit / Defesa Civil"}},{"type":"Feature","geometry":{"type":"Point","coordinates":[-43.095178,-22.908985]},"properties":{"id":20,"nome":"Vital Brazil","operacional":"1","localidade":"Vital Brazil","endereco":null,"bairro":"Vital Brazil","tipo":"nudec","fonte":"Prefeitura de Niterói / GeoNit / Defesa Civil"}},{"type":"Feature","geometry":{"type":"Point","coordinates":[-43.075035,-22.880957]},"properties":{"id":21,"nome":"Bonfim","operacional":"1","localidade":"Bonfim","endereco":null,"bairro":"Fonseca","tipo":"nudec","fonte":"Prefeitura de Niterói / GeoNit / Defesa Civil"}},{"type":"Feature","geometry":{"type":"Point","coordinates":[-43.077959,-22.909284]},"properties":{"id":22,"nome":"Grota","operacional":"1","localidade":"Grota","endereco":null,"bairro":"Cachoeira","tipo":"nudec","fonte":"Prefeitura de Niterói / GeoNit / Defesa Civil"}},{"type":"Feature","geometry":{"type":"Point","coordinates":[-43.089284,-22.878104]},"properties":{"id":23,"nome":"Fonseca","operacional":"1","localidade":"Fonseca","endereco":null,"bairro":"Fonseca","tipo":"nudec","fonte":"Prefeitura de Niterói / GeoNit / Defesa Civil"}},{"type":"Feature","geometry":{"type":"Point","coordinates":[-43.065718,-22.928387]},"properties":{"id":24,"nome":"Cafuba","operacional":"1","localidade":"Cafubá","endereco":null,"bairro":"Cafubá","tipo":"nudec","fonte":"Prefeitura de Niterói / GeoNit / Defesa Civil"}},{"type":"Feature","geometry":{"type":"Point","coordinates":[-42.989229,-22.906]},"properties":{"id":25,"nome":"Varzea das Mocas","operacional":"1","localidade":"Várzea das Moças","endereco":null,"bairro":"Rio do Ouro","tipo":"nudec","fonte":"Prefeitura de Niterói / GeoNit / Defesa Civil"}},{"type":"Feature","geometry":{"type":"Point","coordinates":[-43.106647,-22.867792]},"properties":{"id":26,"nome":"Marui Grande","operacional":"1","localidade":"Marui Grande","endereco":null,"bairro":"Barreto","tipo":"nudec","fonte":"Prefeitura de Niterói / GeoNit / Defesa Civil"}},{"type":"Feature","geometry":{"type":"Point","coordinates":[-43.084756,-22.872279]},"properties":{"id":27,"nome":"Palmeira","operacional":"1","localidade":"Palmeira","endereco":null,"bairro":"Fonseca","tipo":"nudec","fonte":"Prefeitura de Niterói / GeoNit / Defesa Civil"}},{"type":"Feature","geometry":{"type":"Point","coordinates":[-43.050323,-22.896305]},"properties":{"id":28,"nome":"Fazendinha","operacional":"Sim","localidade":"Fazendinha","endereco":null,"bairro":"Sapê","tipo":"nudec","fonte":"Prefeitura de Niterói / GeoNit / Defesa Civil"}},{"type":"Feature","geometry":{"type":"Point","coordinates":[-43.114427,-22.93148]},"properties":{"id":29,"nome":"Cascarejo","operacional":"Sim","localidade":"Cascarejo","endereco":null,"bairro":"Jurujuba","tipo":"nudec","fonte":"Prefeitura de Niterói / GeoNit / Defesa Civil"}},{"type":"Feature","geometry":{"type":"Point","coordinates":[-43.118776,-22.890746]},"properties":{"id":30,"nome":"Centro","operacional":"Sim","localidade":"Centro","endereco":null,"bairro":"Centro","tipo":"nudec","fonte":"Prefeitura de Niterói / GeoNit / Defesa Civil"}},{"type":"Feature","geometry":{"type":"Point","coordinates":[-43.118307,-22.929975]},"properties":{"id":31,"nome":"Jurujuba","operacional":"Sim","localidade":"Jurujuba","endereco":null,"bairro":"Jurujuba","tipo":"nudec","fonte":"Prefeitura de Niterói / GeoNit / Defesa Civil"}},{"type":"Feature","geometry":{"type":"Point","coordinates":[-43.112824,-22.93684]},"properties":{"id":32,"nome":"Salinas","operacional":"Sim","localidade":"Salinas","endereco":null,"bairro":"Jurujuba","tipo":"nudec","fonte":"Prefeitura de Niterói / GeoNit / Defesa Civil"}},{"type":"Feature","geometry":{"type":"Point","coordinates":[-43.110419,-22.935648]},"properties":{"id":33,"nome":"Peixe Galo","operacional":"Sim","localidade":"Peixe Galo","endereco":null,"bairro":"Jurujuba","tipo":"nudec","fonte":"Prefeitura de Niterói / GeoNit / Defesa Civil"}},{"type":"Feature","geometry":{"type":"Point","coordinates":[-43.113391,-22.930119]},"properties":{"id":34,"nome":"Lazaredo","operacional":"Sim","localidade":"Lazaredo","endereco":null,"bairro":"Jurujuba","tipo":"nudec","fonte":"Prefeitura de Niterói / GeoNit / Defesa Civil"}},{"type":"Feature","geometry":{"type":"Point","coordinates":[-43.075956,-22.88821]},"properties":{"id":35,"nome":"Sao Joso","operacional":"Sim","localidade":"Sao Joso","endereco":null,"bairro":"Caramujo","tipo":"nudec","fonte":"Prefeitura de Niterói / GeoNit / Defesa Civil"}},{"type":"Feature","geometry":{"type":"Point","coordinates":[-43.092092,-22.888582]},"properties":{"id":36,"nome":"Horto","operacional":"Sim","localidade":"Horto","endereco":null,"bairro":"Cubango","tipo":"nudec","fonte":"Prefeitura de Niterói / GeoNit / Defesa Civil"}}]}