{"type":"FeatureCollection","features":[{"type":"Feature","geometry":{"type":"Point","coordinates":[-43.125997,-22.884697]},"properties":{"id":570402,"nome":"Morro da Penha","tipo":"pluviometro","fonte":"Prefeitura de Niterói / GeoNit / Defesa Civil","orgao":"Defesa Civil Niteroi"}},{"type":"Feature","geometry":{"type":"Point","coordinates":[-43.086738,-22.902903]},"properties":{"id":570403,"nome":"Travessa Beltrão","tipo":"pluviometro","fonte":"Prefeitura de Niterói / GeoNit / Defesa Civil","orgao":"Defesa Civil Niteroi"}},{"type":"Feature","geometry":{"type":"Point","coordinates":[-43.04637,-22.876405]},"properties":{"id":570404,"nome":"Santa Bárbara 2","tipo":"pluviometro","fonte":"Prefeitura de Niterói / GeoNit / Defesa Civil","orgao":"Defesa Civil Niteroi"}},{"type":"Feature","geometry":{"type":"Point","coordinates":[-43.081942,-22.953174]},"properties":{"id":570405,"nome":"Piratininga 2","tipo":"pluviometro","fonte":"Prefeitura de Niterói / GeoNit / Defesa Civil","orgao":"Defesa Civil Niteroi"}},{"type":"Feature","geometry":{"type":"Point","coordinates":[-42.997197,-22.89142]},"properties":{"id":570406,"nome":"Rio do Ouro","tipo":"pluviometro","fonte":"Prefeitura de Niterói / GeoNit / Defesa Civil","orgao":"Defesa Civil Niteroi"}},{"type":"Feature","geometry":{"type":"Point","coordinates":[-42.98538,-22.91014]},"properties":{"id":570407,"nome":"Várzea das Moças","tipo":"pluviometro","fonte":"Prefeitura de Niterói / GeoNit / Defesa Civil","orgao":"Defesa Civil Niteroi"}},{"type":"Feature","geometry":{"type":"Point","coordinates":[-43.09123,-22.916505]},"properties":{"id":570408,"nome":"São Francisco 1","tipo":"pluviometro","fonte":"Prefeitura de Niterói / GeoNit / Defesa Civil","orgao":"Defesa Civil Niteroi"}},{"type":"Feature","geometry":{"type":"Point","coordinates":[-43.091788,-22.873583]},"properties":{"id":570409,"nome":"Coronel Leôncio","tipo":"pluviometro","fonte":"Prefeitura de Niterói / GeoNit / Defesa Civil","orgao":"Defesa Civil Niteroi"}},{"type":"Feature","geometry":{"type":"Point","coordinates":[-43.102017,-22.896558]},"properties":{"id":570410,"nome":"Pé Pequeno","tipo":"pluviometro","fonte":"Prefeitura de Niterói / GeoNit / Defesa Civil","orgao":"Defesa Civil Niteroi"}},{"type":"Feature","geometry":{"type":"Point","coordinates":[-43.114815,-22.933417]},"properties":{"id":570411,"nome":"Jurujuba","tipo":"pluviometro","fonte":"Prefeitura de Niterói / GeoNit / Defesa Civil","orgao":"Defesa Civil Niteroi"}},{"type":"Feature","geometry":{"type":"Point","coordinates":[-43.071013,-22.906973]},"properties":{"id":570412,"nome":"Igrejinha","tipo":"pluviometro","fonte":"Prefeitura de Niterói / GeoNit / Defesa Civil","orgao":"Defesa Civil Niteroi"}},{"type":"Feature","geometry":{"type":"Point","coordinates":[-43.076725,-22.880417]},"properties":{"id":570413,"nome":"Bonfim 1","tipo":"pluviometro","fonte":"Prefeitura de Niterói / GeoNit / Defesa Civil","orgao":"Defesa Civil Niteroi"}},{"type":"Feature","geometry":{"type":"Point","coordinates":[-43.070646,-22.934971]},"properties":{"id":570414,"nome":"Piratininga","tipo":"pluviometro","fonte":"Prefeitura de Niterói / GeoNit / Defesa Civil","orgao":"Defesa Civil Niteroi"}},{"type":"Feature","geometry":{"type":"Point","coordinates":[-43.10486,-22.885602]},"properties":{"id":570415,"nome":"Boa Vista","tipo":"pluviometro","fonte":"Prefeitura de Niterói / GeoNit / Defesa Civil","orgao":"Defesa Civil Niteroi"}},{"type":"Feature","geometry":{"type":"Point","coordinates":[-43.099569,-22.934931]},"properties":{"id":570416,"nome":"Preventório","tipo":"pluviometro","fonte":"Prefeitura de Niterói / GeoNit / Defesa Civil","orgao":"Defesa Civil Niteroi"}},{"type":"Feature","geometry":{"type":"Point","coordinates":[-43.11846,-22.899628]},"properties":{"id":570417,"nome":"Morro do Estado","tipo":"pluviometro","fonte":"Prefeitura de Niterói / GeoNit / Defesa Civil","orgao":"Defesa Civil Niteroi"}},{"type":"Feature","geometry":{"type":"Point","coordinates":[-43.085833,-22.891437]},"properties":{"id":570418,"nome":"Morro do Bumba","tipo":"pluviometro","fonte":"Prefeitura de Niterói / GeoNit / Defesa Civil","orgao":"Defesa Civil Niteroi"}},{"type":"Feature","geometry":{"type":"Point","coordinates":[-43.0331,-22.96146]},"properties":{"id":570419,"nome":"Itaipu","tipo":"pluviometro","fonte":"Prefeitura de Niterói / GeoNit / Defesa Civil","orgao":"Defesa Civil Niteroi"}},{"type":"Feature","geometry":{"type":"Point","coordinates":[-43.09919,-22.86396]},"properties":{"id":570420,"nome":"Barreto 1","tipo":"pluviometro","fonte":"Prefeitura de Niterói / GeoNit / Defesa Civil","orgao":"Defesa Civil Niteroi"}},{"type":"Feature","geometry":{"type":"Point","coordinates":[-43.072442,-22.913612]},"properties":{"id":570421,"nome":"Maceió","tipo":"pluviometro","fonte":"Prefeitura de Niterói / GeoNit / Defesa Civil","orgao":"Defesa Civil Niteroi"}},{"type":"Feature","geometry":{"type":"Point","coordinates":[-43.03176,-22.936875]},"properties":{"id":570422,"nome":"Maravista","tipo":"pluviometro","fonte":"Prefeitura de Niterói / GeoNit / Defesa Civil","orgao":"Defesa Civil Niteroi"}},{"type":"Feature","geometry":{"type":"Point","coordinates":[-43.06575,-22.88261]},"properties":{"id":570423,"nome":"Caramujo","tipo":"pluviometro","fonte":"Prefeitura de Niterói / GeoNit / Defesa Civil","orgao":"Defesa Civil Niteroi"}},{"type":"Feature","geometry":{"type":"Point","coordinates":[-43.126092,-22.905582]},"properties":{"id":570424,"nome":"Morro do Palácio","tipo":"pluviometro","fonte":"Prefeitura de Niterói / GeoNit / Defesa Civil","orgao":"Defesa Civil Niteroi"}},{"type":"Feature","geometry":{"type":"Point","coordinates":[-43.102392,-22.912318]},"properties":{"id":570425,"nome":"Cavalão","tipo":"pluviometro","fonte":"Prefeitura de Niterói / GeoNit / Defesa Civil","orgao":"Defesa Civil Niteroi"}},{"type":"Feature","geometry":{"type":"Point","coordinates":[-43.006239,-22.934441]},"properties":{"id":570426,"nome":"Engenho do Mato","tipo":"pluviometro","fonte":"Prefeitura de Niterói / GeoNit / Defesa Civil","orgao":"Defesa Civil Niteroi"}},{"type":"Feature","geometry":{"type":"Point","coordinates":[-43.068902,-22.873048]},"properties":{"id":570427,"nome":"Morro do Castro","tipo":"pluviometro","fonte":"Prefeitura de Niterói / GeoNit / Defesa Civil","orgao":"Defesa Civil Niteroi"}},{"type":"Feature","geometry":{"type":"Point","coordinates":[-43.109463,-22.89413]},"properties":{"id":570428,"nome":"Bairro de Fátima","tipo":"pluviometro","fonte":"Prefeitura de Niterói / GeoNit / Defesa Civil","orgao":"Defesa Civil Niteroi"}},{"type":"Feature","geometry":{"type":"Point","coordinates":[-43.05958,-22.897155]},"properties":{"id":570429,"nome":"Sapê","tipo":"pluviometro","fonte":"Prefeitura de Niterói / GeoNit / Defesa Civil","orgao":"Defesa Civil Niteroi"}},{"type":"Feature","geometry":{"type":"Point","coordinates":[-43.081255,-22.863917]},"properties":{"id":570430,"nome":"Tenente Jardim","tipo":"pluviometro","fonte":"Prefeitura de Niterói / GeoNit / Defesa Civil","orgao":"Defesa Civil Niteroi"}},{"type":"Feature","geometry":{"type":"Point","coordinates":[-43.031365,-22.881955]},"properties":{"id":570431,"nome":"Maria Paula","tipo":"pluviometro","fonte":"Prefeitura de Niterói / GeoNit / Defesa Civil","orgao":"Defesa Civil Niteroi"}},{"type":"Feature","geometry":{"type":"Point","coordinates":[-43.008836,-22.934085]},"properties":{"id":570434,"nome":"RIO JOAO MENDES","tipo":"pluviometro","fonte":"Prefeitura de Niterói / GeoNit / Defesa Civil","orgao":"Defesa Civil Niteroi"}},{"type":"Feature","geometry":{"type":"Point","coordinates":[-43.082222,-22.881469]},"properties":{"id":570435,"nome":"CANAL ALAMEDA","tipo":"pluviometro","fonte":"Prefeitura de Niterói / GeoNit / Defesa Civil","orgao":"Defesa Civil Niteroi"}},{"type":"Feature","geometry":{"type":"Point","coordinates":[-43.025777,-22.947643]},"properties":{"id":570436,"nome":"RIO DA VALA","tipo":"pluviometro","fonte":"Prefeitura de Niterói / GeoNit / Defesa Civil","orgao":"Defesa Civil Niteroi"}},{"type":"Feature","geometry":{"type":"Point","coordinates":[-43.105231,-22.899517]},"properties":{"id":570437,"nome":"RIO PALMARES","tipo":"pluviometro","fonte":"Prefeitura de Niterói / GeoNit / Defesa Civil","orgao":"Defesa Civil Niteroi"}},{"type":"Feature","geometry":{"type":"Point","coordinates":[-43.096914,-22.870169]},"properties":{"id":570438,"nome":"CANAL ENGENHOCA","tipo":"pluviometro","fonte":"Prefeitura de Niterói / GeoNit / Defesa Civil","orgao":"Defesa Civil Niteroi"}},{"type":"Feature","geometry":{"type":"Point","coordinates":[-43.097821,-22.905028]},"properties":{"id":570439,"nome":"RIO ICARAI","tipo":"pluviometro","fonte":"Prefeitura de Niterói / GeoNit / Defesa Civil","orgao":"Defesa Civil Niteroi"}},{"type":"Feature","geometry":{"type":"Point","coordinates":[-43.059006,-22.938547]},"properties":{"id":570440,"nome":"RIO JACARE","tipo":"pluviometro","fonte":"Prefeitura de Niterói / GeoNit / Defesa Civil","orgao":"Defesa Civil Niteroi"}},{"type":"Feature","geometry":{"type":"Point","coordinates":[-43.086401,-22.914057]},"properties":{"id":570441,"nome":"CANAL SÃO FRANCISCO","tipo":"pluviometro","fonte":"Prefeitura de Niterói / GeoNit / Defesa Civil","orgao":"Defesa Civil Niteroi"}}]}