{"type":"FeatureCollection","features":[{"type":"Feature","geometry":{"type":"Point","coordinates":[-43.082601,-22.882904]},"properties":{"id":661151,"nome":"Biquinha / Praça São José / Praça Max Wolf (José Leomil)","endereco":"R. Soares de Miranda, 77 - Fonseca","tipo":"ponto_apoio","fonte":"Prefeitura de Niterói / GeoNit / Defesa Civil"}},{"type":"Feature","geometry":{"type":"Point","coordinates":[-43.074372,-22.880969]},"properties":{"id":661152,"nome":"Bonfim","endereco":"R. Bonfim, s/nº - Fonseca","tipo":"ponto_apoio","fonte":"Prefeitura de Niterói / GeoNit / Defesa Civil"}},{"type":"Feature","geometry":{"type":"Point","coordinates":[-43.065148,-22.882716]},"properties":{"id":661153,"nome":"Caramujo - Fonseca Portela","endereco":"Lot. Jardim Figueira, 88 - Caramujo, Niterói - RJ, 24141-185","tipo":"ponto_apoio","fonte":"Prefeitura de Niterói / GeoNit / Defesa Civil"}},{"type":"Feature","geometry":{"type":"Point","coordinates":[-43.074933,-22.936425]},"properties":{"id":661154,"nome":"Caniçal","endereco":"R. Dr. Valdir Costa, Lts 10 e 11 Quadra 87 - Piratininga, Niterói - RJ, 24350-015","tipo":"ponto_apoio","fonte":"Prefeitura de Niterói / GeoNit / Defesa Civil"}},{"type":"Feature","geometry":{"type":"Point","coordinates":[-43.084021,-22.906031]},"properties":{"id":661155,"nome":"Viradouro","endereco":"R. Dr. Mario Vianna, 858 - Santa Rosa, Niterói - RJ, 24241-001","tipo":"ponto_apoio","fonte":"Prefeitura de Niterói / GeoNit / Defesa Civil"}},{"type":"Feature","geometry":{"type":"Point","coordinates":[-43.07864,-22.912924]},"properties":{"id":661156,"nome":"Grota","endereco":"Av. Rui Barbosa, 710 - São Francisco, Niteroi","tipo":"ponto_apoio","fonte":"Prefeitura de Niterói / GeoNit / Defesa Civil"}},{"type":"Feature","geometry":{"type":"Point","coordinates":[-43.070988,-22.90746]},"properties":{"id":661157,"nome":"Igrejinha","endereco":"Estrada General Castro Guimaraes, 735, Largo da Batalha","tipo":"ponto_apoio","fonte":"Prefeitura de Niterói / GeoNit / Defesa Civil"}},{"type":"Feature","geometry":{"type":"Point","coordinates":[-43.084929,-22.89197]},"properties":{"id":661158,"nome":"Viçoso Jardim / Morro do Bumba","endereco":"Estr. Viçoso Jardim, 298 - Viçoso, Niterói - RJ, 24140-169","tipo":"ponto_apoio","fonte":"Prefeitura de Niterói / GeoNit / Defesa Civil"}},{"type":"Feature","geometry":{"type":"Point","coordinates":[-43.084408,-22.863533]},"properties":{"id":661159,"nome":"Tenente Jardim","endereco":"R. Dr. March, 628 - Tenente Jardim","tipo":"ponto_apoio","fonte":"Prefeitura de Niterói / GeoNit / Defesa Civil"}},{"type":"Feature","geometry":{"type":"Point","coordinates":[-43.075,-22.874534]},"properties":{"id":661160,"nome":"Teixeira de Freitas","endereco":"R. Teixeira de Freitas, 380 - Fonseca, Niterói - RJ, 24130-614","tipo":"ponto_apoio","fonte":"Prefeitura de Niterói / GeoNit / Defesa Civil"}},{"type":"Feature","geometry":{"type":"Point","coordinates":[-43.069653,-22.868605]},"properties":{"id":661161,"nome":"Morro do Castro","endereco":"Estrada Bento Pestana, s/nº - Morro do Castro","tipo":"ponto_apoio","fonte":"Prefeitura de Niterói / GeoNit / Defesa Civil"}},{"type":"Feature","geometry":{"type":"Point","coordinates":[-43.049109,-22.876095]},"properties":{"id":661162,"nome":"Santa Bárbara","endereco":"R. Jandira Pereira, 620 - Santa Barbara, Niterói - RJ, 24141-400","tipo":"ponto_apoio","fonte":"Prefeitura de Niterói / GeoNit / Defesa Civil"}},{"type":"Feature","geometry":{"type":"Point","coordinates":[-43.100417,-22.934431]},"properties":{"id":661163,"nome":"Preventório","endereco":"R. Quatorze de Abril, 19 - Charitas","tipo":"ponto_apoio","fonte":"Prefeitura de Niterói / GeoNit / Defesa Civil"}},{"type":"Feature","geometry":{"type":"Point","coordinates":[-43.126571,-22.904993]},"properties":{"id":661164,"nome":"Morro do Palácio","endereco":"Rua J, nº 2  - Ingá","tipo":"ponto_apoio","fonte":"Prefeitura de Niterói / GeoNit / Defesa Civil"}},{"type":"Feature","geometry":{"type":"Point","coordinates":[-43.118109,-22.900064]},"properties":{"id":661165,"nome":"Morro do Estado","endereco":"Travessa Imaculada Conceição n° 152","tipo":"ponto_apoio","fonte":"Prefeitura de Niterói / GeoNit / Defesa Civil"}},{"type":"Feature","geometry":{"type":"Point","coordinates":[-43.092634,-22.898747]},"properties":{"id":661166,"nome":"Martins Torres","endereco":"Rua Dr. Martins Torres, 223, Santa Rosa, Niterói","tipo":"ponto_apoio","fonte":"Prefeitura de Niterói / GeoNit / Defesa Civil"}},{"type":"Feature","geometry":{"type":"Point","coordinates":[-43.091726,-22.901053]},"properties":{"id":661167,"nome":"Alarico de Souza","endereco":"Estrada Alarico de Souza, 491, Santa Rosa","tipo":"ponto_apoio","fonte":"Prefeitura de Niterói / GeoNit / Defesa Civil"}},{"type":"Feature","geometry":{"type":"Point","coordinates":[-43.086859,-22.903675]},"properties":{"id":661168,"nome":"Travessa Beltrão","endereco":"Rua Almir Madeira, 168","tipo":"ponto_apoio","fonte":"Prefeitura de Niterói / GeoNit / Defesa Civil"}},{"type":"Feature","geometry":{"type":"Point","coordinates":[-43.067205,-22.907719]},"properties":{"id":661169,"nome":"Maceió","endereco":"Rua Reverendo Armando Ferreira s/n - Largo da Batalha","tipo":"ponto_apoio","fonte":"Prefeitura de Niterói / GeoNit / Defesa Civil"}},{"type":"Feature","geometry":{"type":"Point","coordinates":[-43.116373,-22.931823]},"properties":{"id":661170,"nome":"Jurujuba","endereco":"Estr. Gen. Eurico Gaspar Dutra, 34 - Jurujuba, Niterói - RJ, 24370-195","tipo":"ponto_apoio","fonte":"Prefeitura de Niterói / GeoNit / Defesa Civil"}},{"type":"Feature","geometry":{"type":"Point","coordinates":[-43.055849,-22.942424]},"properties":{"id":661171,"nome":"Boa Esperança","endereco":"Rua Manoel Pacheco de Carvalho, s/n, Niteroi","tipo":"ponto_apoio","fonte":"Prefeitura de Niterói / GeoNit / Defesa Civil"}},{"type":"Feature","geometry":{"type":"Point","coordinates":[-43.094448,-22.874011]},"properties":{"id":661172,"nome":"Coronel Leôncio","endereco":"R. Dr. Nelson Penna, 17 - Engenhoca","tipo":"ponto_apoio","fonte":"Prefeitura de Niterói / GeoNit / Defesa Civil"}},{"type":"Feature","geometry":{"type":"Point","coordinates":[-43.103868,-22.912972]},"properties":{"id":661173,"nome":"Cavalão","endereco":"Alameda Paris, 250, São Francisco, Niterói","tipo":"ponto_apoio","fonte":"Prefeitura de Niterói / GeoNit / Defesa Civil"}},{"type":"Feature","geometry":{"type":"Point","coordinates":[-43.107353,-22.887028]},"properties":{"id":661174,"nome":"Boa Vista","endereco":"R. Silveira da Mota, 330, São Lourenço, Niterói","tipo":"ponto_apoio","fonte":"Prefeitura de Niterói / GeoNit / Defesa Civil"}},{"type":"Feature","geometry":{"type":"Point","coordinates":[-43.109416,-22.895425]},"properties":{"id":661175,"nome":"Bairro de Fátima / Pé Pequeno","endereco":"R. Manoel Corrêa, s/nº - Bairro de Fátima","tipo":"ponto_apoio","fonte":"Prefeitura de Niterói / GeoNit / Defesa Civil"}},{"type":"Feature","geometry":{"type":"Point","coordinates":[-43.066863,-22.888665]},"properties":{"id":661176,"nome":"Caramujo - Mundo Novo","endereco":"R. do Alto, 130","tipo":"ponto_apoio","fonte":"Prefeitura de Niterói / GeoNit / Defesa Civil"}},{"type":"Feature","geometry":{"type":"Point","coordinates":[-43.09554,-22.88955]},"properties":{"id":661177,"nome":"Travessa Iara","endereco":"Rua Noronha Torrezão, 560, Cubango, Niterói","tipo":"ponto_apoio","fonte":"Prefeitura de Niterói / GeoNit / Defesa Civil"}}]}