{"type":"FeatureCollection","features":[{"type":"Feature","geometry":{"type":"Point","coordinates":[-43.091946,-22.901038]},"properties":{"id":904651,"nome":"Alarico de Souza","tipo":"sirene","fonte":"Prefeitura de Niterói / GeoNit / Defesa Civil"}},{"type":"Feature","geometry":{"type":"Point","coordinates":[-43.109822,-22.894371]},"properties":{"id":904652,"nome":"Bairro de Fátima","tipo":"sirene","fonte":"Prefeitura de Niterói / GeoNit / Defesa Civil"}},{"type":"Feature","geometry":{"type":"Point","coordinates":[-43.0877,-22.903442]},"properties":{"id":904653,"nome":"Travessa Beltrão","tipo":"sirene","fonte":"Prefeitura de Niterói / GeoNit / Defesa Civil"}},{"type":"Feature","geometry":{"type":"Point","coordinates":[-43.072674,-22.887659]},"properties":{"id":904654,"nome":"Biquinha","tipo":"sirene","fonte":"Prefeitura de Niterói / GeoNit / Defesa Civil"}},{"type":"Feature","geometry":{"type":"Point","coordinates":[-43.104912,-22.885391]},"properties":{"id":904655,"nome":"Boa Vista","tipo":"sirene","fonte":"Prefeitura de Niterói / GeoNit / Defesa Civil"}},{"type":"Feature","geometry":{"type":"Point","coordinates":[-43.07672,-22.88042]},"properties":{"id":904656,"nome":"Bonfim 2","tipo":"sirene","fonte":"Prefeitura de Niterói / GeoNit / Defesa Civil"}},{"type":"Feature","geometry":{"type":"Point","coordinates":[-43.074882,-22.880579]},"properties":{"id":904657,"nome":"Bonfim 1","tipo":"sirene","fonte":"Prefeitura de Niterói / GeoNit / Defesa Civil"}},{"type":"Feature","geometry":{"type":"Point","coordinates":[-43.090319,-22.873157]},"properties":{"id":904658,"nome":"Coronel Leôncio","tipo":"sirene","fonte":"Prefeitura de Niterói / GeoNit / Defesa Civil"}},{"type":"Feature","geometry":{"type":"Point","coordinates":[-43.079551,-22.865173]},"properties":{"id":904659,"nome":"Tenente Jardim","tipo":"sirene","fonte":"Prefeitura de Niterói / GeoNit / Defesa Civil"}},{"type":"Feature","geometry":{"type":"Point","coordinates":[-43.068981,-22.873229]},"properties":{"id":904660,"nome":"Morro do Castro","tipo":"sirene","fonte":"Prefeitura de Niterói / GeoNit / Defesa Civil"}},{"type":"Feature","geometry":{"type":"Point","coordinates":[-43.077313,-22.909593]},"properties":{"id":904661,"nome":"Grota","tipo":"sirene","fonte":"Prefeitura de Niterói / GeoNit / Defesa Civil"}},{"type":"Feature","geometry":{"type":"Point","coordinates":[-43.071061,-22.906848]},"properties":{"id":904662,"nome":"Igrejinha","tipo":"sirene","fonte":"Prefeitura de Niterói / GeoNit / Defesa Civil"}},{"type":"Feature","geometry":{"type":"Point","coordinates":[-43.078744,-22.884824]},"properties":{"id":904663,"nome":"Praça Max Wolf","tipo":"sirene","fonte":"Prefeitura de Niterói / GeoNit / Defesa Civil"}},{"type":"Feature","geometry":{"type":"Point","coordinates":[-43.070659,-22.914333]},"properties":{"id":904664,"nome":"Maceió I","tipo":"sirene","fonte":"Prefeitura de Niterói / GeoNit / Defesa Civil"}},{"type":"Feature","geometry":{"type":"Point","coordinates":[-43.072817,-22.913667]},"properties":{"id":904665,"nome":"Maceió II","tipo":"sirene","fonte":"Prefeitura de Niterói / GeoNit / Defesa Civil"}},{"type":"Feature","geometry":{"type":"Point","coordinates":[-43.089042,-22.898609]},"properties":{"id":904666,"nome":"Martins Torres","tipo":"sirene","fonte":"Prefeitura de Niterói / GeoNit / Defesa Civil"}},{"type":"Feature","geometry":{"type":"Point","coordinates":[-43.123418,-22.880659]},"properties":{"id":904667,"nome":"Morro da Penha","tipo":"sirene","fonte":"Prefeitura de Niterói / GeoNit / Defesa Civil"}},{"type":"Feature","geometry":{"type":"Point","coordinates":[-43.117427,-22.899081]},"properties":{"id":904668,"nome":"Morro do Estado","tipo":"sirene","fonte":"Prefeitura de Niterói / GeoNit / Defesa Civil"}},{"type":"Feature","geometry":{"type":"Point","coordinates":[-43.129333,-22.906546]},"properties":{"id":904669,"nome":"Morro do Palácio","tipo":"sirene","fonte":"Prefeitura de Niterói / GeoNit / Defesa Civil"}},{"type":"Feature","geometry":{"type":"Point","coordinates":[-43.103868,-22.895592]},"properties":{"id":904670,"nome":"Pé Pequeno","tipo":"sirene","fonte":"Prefeitura de Niterói / GeoNit / Defesa Civil"}},{"type":"Feature","geometry":{"type":"Point","coordinates":[-43.098829,-22.933407]},"properties":{"id":904671,"nome":"Charitas/Bombeiros","tipo":"sirene","fonte":"Prefeitura de Niterói / GeoNit / Defesa Civil"}},{"type":"Feature","geometry":{"type":"Point","coordinates":[-43.100417,-22.934431]},"properties":{"id":904672,"nome":"Preventório","tipo":"sirene","fonte":"Prefeitura de Niterói / GeoNit / Defesa Civil"}},{"type":"Feature","geometry":{"type":"Point","coordinates":[-43.083726,-22.888628]},"properties":{"id":904673,"nome":"Viçoso Jardim","tipo":"sirene","fonte":"Prefeitura de Niterói / GeoNit / Defesa Civil"}},{"type":"Feature","geometry":{"type":"Point","coordinates":[-43.047942,-22.879734]},"properties":{"id":904674,"nome":"Santa Bárbara I","tipo":"sirene","fonte":"Prefeitura de Niterói / GeoNit / Defesa Civil"}},{"type":"Feature","geometry":{"type":"Point","coordinates":[-43.046106,-22.876363]},"properties":{"id":904675,"nome":"Santa Bárbara II","tipo":"sirene","fonte":"Prefeitura de Niterói / GeoNit / Defesa Civil"}},{"type":"Feature","geometry":{"type":"Point","coordinates":[-43.07777,-22.887468]},"properties":{"id":904676,"nome":"Praça São José","tipo":"sirene","fonte":"Prefeitura de Niterói / GeoNit / Defesa Civil"}},{"type":"Feature","geometry":{"type":"Point","coordinates":[-43.07573,-22.873032]},"properties":{"id":904677,"nome":"Teixeira de Freitas","tipo":"sirene","fonte":"Prefeitura de Niterói / GeoNit / Defesa Civil"}},{"type":"Feature","geometry":{"type":"Point","coordinates":[-43.085956,-22.891492]},"properties":{"id":904678,"nome":"Morro do Bumba","tipo":"sirene","fonte":"Prefeitura de Niterói / GeoNit / Defesa Civil"}},{"type":"Feature","geometry":{"type":"Point","coordinates":[-43.07933,-22.905864]},"properties":{"id":904679,"nome":"Viradouro","tipo":"sirene","fonte":"Prefeitura de Niterói / GeoNit / Defesa Civil"}},{"type":"Feature","geometry":{"type":"Point","coordinates":[-43.098249,-22.892544]},"properties":{"id":904680,"nome":"Travessa Iara","tipo":"sirene","fonte":"Prefeitura de Niterói / GeoNit / Defesa Civil"}},{"type":"Feature","geometry":{"type":"Point","coordinates":[-43.11464,-22.931856]},"properties":{"id":904681,"nome":"Jurujuba 2","tipo":"sirene","fonte":"Prefeitura de Niterói / GeoNit / Defesa Civil"}},{"type":"Feature","geometry":{"type":"Point","coordinates":[-43.11301,-22.935621]},"properties":{"id":904682,"nome":"Jurujuba 1","tipo":"sirene","fonte":"Prefeitura de Niterói / GeoNit / Defesa Civil"}},{"type":"Feature","geometry":{"type":"Point","coordinates":[-43.063472,-22.887379]},"properties":{"id":904683,"nome":"Caramujo 2","tipo":"sirene","fonte":"Prefeitura de Niterói / GeoNit / Defesa Civil"}},{"type":"Feature","geometry":{"type":"Point","coordinates":[-43.071073,-22.883164]},"properties":{"id":904684,"nome":"Caramujo 1","tipo":"sirene","fonte":"Prefeitura de Niterói / GeoNit / Defesa Civil"}},{"type":"Feature","geometry":{"type":"Point","coordinates":[-43.05527,-22.93972]},"properties":{"id":904685,"nome":"Boa Esperança","tipo":"sirene","fonte":"Prefeitura de Niterói / GeoNit / Defesa Civil"}},{"type":"Feature","geometry":{"type":"Point","coordinates":[-43.06722,-22.92888]},"properties":{"id":904686,"nome":"Caniçal","tipo":"sirene","fonte":"Prefeitura de Niterói / GeoNit / Defesa Civil"}},{"type":"Feature","geometry":{"type":"Point","coordinates":[-43.102069,-22.912191]},"properties":{"id":904687,"nome":"Morro do Cavalão","tipo":"sirene","fonte":"Prefeitura de Niterói / GeoNit / Defesa Civil"}}]}